GLOBALSTAR M045         
1 25676U 99019A   24144.82399241 -.00000034  00000+0  52649-3 0  9993
2 25676  51.9989 335.0145 0001087 126.3376 337.8352 12.27037755145598
GLOBALSTAR M019         
1 25677U 99019B   24144.31313485 -.00000039  00000+0  52645-3 0  9995
2 25677  51.9887  79.4039 0000572 284.2562 246.1429 12.13857720137793
GLOBALSTAR M044         
1 25678U 99019C   24145.05055560 -.00000064  00000+0  27082-3 0  9990
2 25678  51.9990 340.0351 0006405  16.3117 159.9561 11.90233303124966
GLOBALSTAR M042         
1 25679U 99019D   24144.81914154 -.00000096  00000+0 -38206-4 0  9994
2 25679  52.0026  70.1278 0002389 212.9902 185.1889 12.22062143137653
GLOBALSTAR M025         
1 25770U 99031A   24144.83018620 -.00000065  00000+0  66833-4 0  9997
2 25770  51.9840 341.2407 0001270 183.3098 274.2485 11.22550753437987
GLOBALSTAR M049         
1 25771U 99031B   24144.89000567 -.00000078  00000+0 -44584-3 0  9998
2 25771  51.9908 356.3011 0003467  81.0657 279.0532 11.12109235 74118
GLOBALSTAR M047         
1 25772U 99031C   24145.06471890 -.00000046  00000+0  64185-3 0  9993
2 25772  51.9867  30.0487 0016149 317.0291  42.9253 11.31920793101819
GLOBALSTAR M052         
1 25773U 99031D   24145.17870179 -.00000039  00000+0  91018-3 0  9996
2 25773  51.9846 109.7896 0002656 256.1399 199.2159 11.15051382 92940
